
CZ-7A R/B
1 69236U 26116B   26175.19388724  .00171319 -42151-6  26117-3 0  9997
2 69236  19.5720 137.0581 7180659 200.8776 100.0771  2.47956709   716

STARLINK-37201
1 69220U 26115K   26175.25002315 -.00012035  00000+0 -37159-3 0  9993
2 69220  97.2852 192.5876 0001525 124.1796 295.6740 15.33398617  5829

STARLINK-37557
1 69231U 26115W   26175.32352591  .00047320  00000+0  86597-3 0  9990
2 69231  97.2861 192.6120 0001600  95.3975 264.7459 15.49206229  5778

STARLINK-37558
1 69239U 26117B   26174.37242800  .00263637  00000+0  12304-2 0  9990
2 69239  53.1568 212.5614 0001046  55.7454 304.3668 15.82044589  3954

STARLINK-37613
1 69211U 26115A   26175.30304882  .00020395  00000+0  37522-3 0  9993
2 69211  97.2863 192.4845 0001512  89.3317 270.8107 15.49224404  5767

STARLINK-37618
1 69228U 26115T   26175.09967216  .00040976  00000+0  80083-3 0  9990
2 69228  97.2933 192.4620 0005074 162.6713 197.4712 15.47331250  5746

STARLINK-37620
1 69214U 26115D   26174.99436117  .00039856  00000+0  72892-3 0  9998
2 69214  97.2786 192.1342 0001916 127.8275 232.3150 15.49260863  5717

STARLINK-37665
1 69238U 26117A   26175.25820352  .00074207  00000+0  37637-3 0  9991
2 69238  53.1564 208.1302 0001879  56.3833 303.7369 15.80867085  4095

STARLINK-37679
1 69229U 26115U   26175.09954351 -.00455611  00000+0 -11053-1 0  9994
2 69229  97.2838 192.4556 0001788   9.9877 350.1406 15.42777542  5742

STARLINK-37680
1 69240U 26117C   26174.81321470  .00479066  00000+0  21655-2 0  9996
2 69240  53.1564 210.3311 0001382  66.7777 293.3391 15.82164583  4021

STARLINK-37700
1 69215U 26115E   26175.29073051  .00050514  00000+0  92397-3 0  9993
2 69215  97.2854 192.3485 0000853 103.8147 256.3200 15.49206181  5754

STARLINK-37713
1 69212U 26115B   26175.00358065  .00014763  00000+0  41006-3 0  9997
2 69212  97.2849 192.2810 0001495  96.1723 263.9692 15.36980734  5728

STARLINK-37716
1 69213U 26115C   26175.25002315 -.00268203  00000+0 -76611-2 0  9990
2 69213  97.2850 192.5293 0001273  84.2468 205.3028 15.37080820  5829

STARLINK-37724
1 69218U 26115H   26175.25002315 -.00026121  00000+0 -80948-3 0  9995
2 69218  97.2853 192.5792 0001259 107.4052 297.4506 15.33447847  5827

STARLINK-37725
1 69224U 26115P   26175.25002315 -.00018288  00000+0 -50571-3 0  9996
2 69224  97.2846 192.5996 0000933  87.0319   8.2999 15.36956452  5823

STARLINK-37728
1 69221U 26115L   26175.25002315 -.00027331  00000+0 -84671-3 0  9990
2 69221  97.2853 192.5983 0001340  67.2373  22.5524 15.33467507  5825

STARLINK-37736
1 69226U 26115R   26175.25002315 -.00019110  00000+0 -59144-3 0  9998
2 69226  97.2852 192.6295 0001316  75.4349  89.3337 15.33427179  5827

STARLINK-37737
1 69227U 26115S   26175.25002315 -.00029910  00000+0 -92753-3 0  9991
2 69227  97.2851 192.6416 0001371  76.4019 118.4487 15.33454112  5847

STARLINK-37739
1 69233U 26115Y   26175.30055647  .00054285  00000+0  99215-3 0  9991
2 69233  97.2867 192.6425 0001367 101.3066 258.8339 15.49210997  5771

STARLINK-37742
1 69241U 26117D   26174.81142902  .00463430  00000+0  20993-2 0  9990
2 69241  53.1565 210.3197 0001079  62.6301 297.4832 15.82158558  4026

STARLINK-37745
1 69232U 26115X   26175.25002315 -.00029472  00000+0 -91387-3 0  9992
2 69232  97.2855 192.6741 0001031 101.4305 168.4171 15.33454508  5820

STARLINK-37746
1 69230U 26115V   26175.29861999  .00060358  00000+0  11034-2 0  9991
2 69230  97.2848 192.6443 0000938 187.6102 172.5135 15.49178643  5775

STARLINK-37755
1 69234U 26115Z   26175.25002315 -.02595892  00000+0 -30541-1 0  9993
2 69234  97.2834 193.0091 0001160  87.8342 256.5499 15.65011429  5821

STARLINK-37758
1 69219U 26115J   26175.25002315 -.00027253  00000+0 -84472-3 0  9999
2 69219  97.2853 192.5913 0001505  86.3473 348.5081 15.33449953  5825

STARLINK-37759
1 69223U 26115N   26174.45316400 -.00969224  00000+0 -21794-1 0  9997
2 69223  97.2866 191.8054 0001954  81.7468 278.4004 15.45929349  5644

STARLINK-37760
1 69222U 26115M   26175.25002315 -.00025890  00000+0 -80257-3 0  9995
2 69222  97.2855 192.6046 0001038  83.5026  21.3581 15.33436530  5821

STARLINK-37763
1 69217U 26115G   26175.25002315 -.00010089  00000+0 -31109-3 0  9995
2 69217  97.2851 192.5737 0001911  64.3848 325.4733 15.33392388  5825

STARLINK-37766
1 69216U 26115F   26175.25002315 -.00024715  00000+0 -76526-3 0  9997
2 69216  97.2852 192.5652 0001546  82.6736 292.0875 15.33462613  5829

STARLINK-37770
1 69225U 26115Q   26175.25002315 -.00029897  00000+0 -92718-3 0  9994
2 69225  97.2852 192.6226 0000474  60.8464  88.9959 15.33452853  5822

TJS-24
1 69235U 26116A   26175.75678884 -.00000222  00000+0  00000+0 0  9990
2 69235   0.0380 118.4966 0000507 319.7493 197.3921  1.00271461   308
