OBJECT_NAME,OBJECT_ID,EPOCH,MEAN_MOTION,ECCENTRICITY,INCLINATION,RA_OF_ASC_NODE,ARG_OF_PERICENTER,MEAN_ANOMALY,EPHEMERIS_TYPE,CLASSIFICATION_TYPE,NORAD_CAT_ID,ELEMENT_SET_NO,REV_AT_EPOCH,BSTAR,MEAN_MOTION_DOT,MEAN_MOTION_DDOT
STARLINK-37613,2026-115A,2026-06-24T07:16:23.418048,15.49224404,.00015123,97.2863,192.4845,89.3317,270.8107,0,U,69211,999,576,.37521867E-3,.20395E-3,0
STARLINK-37713,2026-115B,2026-06-24T00:05:09.368160,15.36980734,.00014955,97.2849,192.2810,96.1723,263.9692,0,U,69212,999,572,.41005527E-3,.14763E-3,0
STARLINK-37716,2026-115C,2026-06-24T06:00:02.000160,15.37080820,.00012736,97.2850,192.5293,84.2468,205.3028,0,U,69213,999,582,-.76611E-2,-.268203E-2,0
STARLINK-37620,2026-115D,2026-06-23T23:51:52.805088,15.49260863,.00019163,97.2786,192.1342,127.8275,232.3150,0,U,69214,999,571,.72891973E-3,.39856E-3,0
STARLINK-37700,2026-115E,2026-06-24T06:58:39.116064,15.49206181,.00008535,97.2854,192.3485,103.8147,256.3200,0,U,69215,999,575,.92396905E-3,.50514E-3,0
STARLINK-37766,2026-115F,2026-06-24T06:00:02.000160,15.33462613,.00015469,97.2852,192.5652,82.6736,292.0875,0,U,69216,999,582,-.76526406E-3,-.24715E-3,0
STARLINK-37763,2026-115G,2026-06-24T06:00:02.000160,15.33392388,.00019112,97.2851,192.5737,64.3848,325.4733,0,U,69217,999,582,-.31109064E-3,-.10089E-3,0
STARLINK-37724,2026-115H,2026-06-24T06:00:02.000160,15.33447847,.00012595,97.2853,192.5792,107.4052,297.4506,0,U,69218,999,582,-.80948008E-3,-.26121E-3,0
STARLINK-37758,2026-115J,2026-06-24T06:00:02.000160,15.33449953,.00015054,97.2853,192.5913,86.3473,348.5081,0,U,69219,999,582,-.84471856E-3,-.27253E-3,0
STARLINK-37201,2026-115K,2026-06-24T06:00:02.000160,15.33398617,.00015259,97.2852,192.5876,124.1796,295.6740,0,U,69220,999,582,-.37159037E-3,-.12035E-3,0
STARLINK-37728,2026-115L,2026-06-24T06:00:02.000160,15.33467507,.00013408,97.2853,192.5983,67.2373,22.5524,0,U,69221,999,582,-.84670598E-3,-.27331E-3,0
STARLINK-37760,2026-115M,2026-06-24T06:00:02.000160,15.33436530,.00010381,97.2855,192.6046,83.5026,21.3581,0,U,69222,999,582,-.80257325E-3,-.2589E-3,0
STARLINK-37759,2026-115N,2026-06-23T10:52:33.369600,15.45929349,.00019546,97.2866,191.8054,81.7468,278.4004,0,U,69223,999,564,-.21794384E-1,-.969224E-2,0
STARLINK-37725,2026-115P,2026-06-24T06:00:02.000160,15.36956452,.0000933,97.2846,192.5996,87.0319,8.2999,0,U,69224,999,582,-.50570614E-3,-.18288E-3,0
STARLINK-37770,2026-115Q,2026-06-24T06:00:02.000160,15.33452853,.00004741,97.2852,192.6226,60.8464,88.9959,0,U,69225,999,582,-.92718173E-3,-.29897E-3,0
STARLINK-37736,2026-115R,2026-06-24T06:00:02.000160,15.33427179,.00013163,97.2852,192.6295,75.4349,89.3337,0,U,69226,999,582,-.59143608E-3,-.1911E-3,0
STARLINK-37737,2026-115S,2026-06-24T06:00:02.000160,15.33454112,.00013715,97.2851,192.6416,76.4019,118.4487,0,U,69227,999,584,-.92752929E-3,-.2991E-3,0
STARLINK-37618,2026-115T,2026-06-24T02:23:31.674624,15.47331250,.00050741,97.2933,192.4620,162.6713,197.4712,0,U,69228,999,574,.80082947E-3,.40976E-3,0
STARLINK-37679,2026-115U,2026-06-24T02:23:20.559264,15.42777542,.00017884,97.2838,192.4556,9.9877,350.1406,0,U,69229,999,574,-.11052623E-1,-.455611E-2,0
STARLINK-37746,2026-115V,2026-06-24T07:10:00.767136,15.49178643,.00009381,97.2848,192.6443,187.6102,172.5135,0,U,69230,999,577,.11033711E-2,.60358E-3,0
STARLINK-37557,2026-115W,2026-06-24T07:45:52.638624,15.49206229,.00016003,97.2861,192.6120,95.3975,264.7459,0,U,69231,999,577,.86596564E-3,.4732E-3,0
STARLINK-37745,2026-115X,2026-06-24T06:00:02.000160,15.33454508,.00010312,97.2855,192.6741,101.4305,168.4171,0,U,69232,999,582,-.91386817E-3,-.29472E-3,0
STARLINK-37739,2026-115Y,2026-06-24T07:12:48.079008,15.49210997,.0001367,97.2867,192.6425,101.3066,258.8339,0,U,69233,999,577,.99215063E-3,.54285E-3,0
STARLINK-37755,2026-115Z,2026-06-24T06:00:02.000160,15.65011429,.000116,97.2834,193.0091,87.8342,256.5499,0,U,69234,999,582,-.3054093E-1,-.2595892E-1,0
TJS-24,2026-116A,2026-06-24T18:09:46.555776,1.00271461,.0000507,0.0380,118.4966,319.7493,197.3921,0,U,69235,999,30,0,-.222E-5,0
CZ-7A R/B,2026-116B,2026-06-24T04:39:11.857536,2.47956709,.7180659,19.5720,137.0581,200.8776,100.0771,0,U,69236,999,71,.26116646E-3,.171319E-2,-.421515E-6
STARLINK-37665,2026-117A,2026-06-24T06:11:48.784128,15.80867085,.00018799,53.1564,208.1302,56.3833,303.7369,0,U,69238,999,409,.37636781E-3,.74207E-3,0
STARLINK-37558,2026-117B,2026-06-23T08:56:17.779200,15.82044589,.00010466,53.1568,212.5614,55.7454,304.3668,0,U,69239,999,395,.12303891E-2,.263637E-2,0
STARLINK-37680,2026-117C,2026-06-23T19:31:01.750080,15.82164583,.00013822,53.1564,210.3311,66.7777,293.3391,0,U,69240,999,402,.2165504E-2,.479066E-2,0
STARLINK-37742,2026-117D,2026-06-23T19:28:27.467328,15.82158558,.00010795,53.1565,210.3197,62.6301,297.4832,0,U,69241,999,402,.20993022E-2,.46343E-2,0
